1 42032U 17008CN  21330.82857509  .00006554  00000-0  22556-3 0  9993
2 42032  97.3048  35.9598 0005599 236.5920 123.4786 15.30375137265928
1 42032U 17008CN  21331.48243076  .00007458  00000-0  25624-3 0  9997
2 42032  97.3049  36.6030 0005625 233.6312 126.4411 15.30384999266027
1 42032U 17008CN  21331.80935670  .00007382  00000-0  25363-3 0  9997
2 42032  97.3049  36.9246 0005639 232.2288 127.8443 15.30389797266077
1 42032U 17008CN  21332.46320545  .00009359  00000-0  32066-3 0  9993
2 42032  97.3050  37.5678 0005687 229.4352 130.6394 15.30402667266178
1 42032U 17008CN  21332.65935919  .00009106  00000-0  31203-3 0  9993
2 42032  97.3051  37.7607 0005701 228.5698 131.5054 15.30405665266201
1 42032U 17008CN  21332.92089654  .00008226  00000-0  28211-3 0  9996
2 42032  97.3051  38.0181 0005722 227.5436 132.5322 15.30408738266241
1 42032U 17008CN  21333.44396783  .00010854  00000-0  37114-3 0  9990
2 42032  97.3052  38.5327 0005754 225.3800 134.6972 15.30423582266322
1 42032U 17008CN  21334.49010120  .00008878  00000-0  30395-3 0  9991
2 42032  97.3055  39.5619 0005831 221.0152 139.0651 15.30441066266486
1 42032U 17008CN  21335.40545647  .00012038  00000-0  41079-3 0  9994
2 42032  97.3054  40.4625 0005884 217.2532 142.8302 15.30463249266628
1 42032U 17008CN  21335.73236674  .00010235  00000-0  34970-3 0  9996
2 42032  97.3054  40.7842 0005916 215.9237 144.1607 15.30466781266677
1 42032U 17008CN  21336.45156223  .00011600  00000-0  39568-3 0  9992
2 42032  97.3054  41.4919 0005967 213.0840 147.0029 15.30485114266788
1 42032U 17008CN  21336.90922887  .00009015  00000-0  30809-3 0  9995
2 42032  97.3053  41.9423 0006011 211.2009 148.8876 15.30492235266859
1 42032U 17008CN  21337.17075120  .00008510  00000-0  29096-3 0  9999
2 42032  97.3052  42.1995 0006036 210.1632 149.9262 15.30497397266891
1 42032U 17008CN  21337.43227293  .00007853  00000-0  26869-3 0  9992
2 42032  97.3051  42.4569 0006061 209.1697 150.9206 15.30500859266930
1 42032U 17008CN  21338.15145360  .00009953  00000-0  33961-3 0  9990
2 42032  97.3047  43.1643 0006110 206.3645 153.7286 15.30516795267041
1 42032U 17008CN  21338.41297220  .00009601  00000-0  32763-3 0  9991
2 42032  97.3047  43.4215 0006128 205.3452 154.7489 15.30521058267081
1 42032U 17008CN  21338.73986976  .00008719  00000-0  29776-3 0  9998
2 42032  97.3044  43.7433 0006176 204.0999 155.9954 15.30525380267136
1 42032U 17008CN  21339.45903984  .00007717  00000-0  26379-3 0  9999
2 42032  97.3041  44.4508 0006252 201.5660 158.5319 15.30536081267242
1 42032U 17008CN  21339.91669067  .00007727  00000-0  26404-3 0  9991
2 42032  97.3038  44.9009 0006286 199.8626 160.2372 15.30543757267312
1 42032U 17008CN  21340.17820451  .00007633  00000-0  26083-3 0  9996
2 42032  97.3038  45.1582 0006309 198.9517 161.1491 15.30548068267352
1 42032U 17008CN  21340.76660893  .00006171  00000-0  21136-3 0  9993
2 42032  97.3036  45.7369 0006356 196.6285 163.4749 15.30554174267444
1 42032U 17008CN  21341.15887665  .00006900  00000-0  23595-3 0  9996
2 42032  97.3034  46.1228 0006388 195.1207 164.9844 15.30560854267505
1 42032U 17008CN  21341.94340894  .00005561  00000-0  19065-3 0  9990
2 42032  97.3033  46.8945 0006457 192.1442 167.9645 15.30568406267628
1 42032U 17008CN  21342.72793665  .00005659  00000-0  19390-3 0  9994
2 42032  97.3031  47.6662 0006537 189.1996 170.9127 15.30577920267743
1 42032U 17008CN  21343.18557574  .00004999  00000-0  17157-3 0  9997
2 42032  97.3031  48.1164 0006577 187.6967 172.4174 15.30581869267815
1 42032U 17008CN  21343.64321392  .00004802  00000-0  16488-3 0  9994
2 42032  97.3031  48.5666 0006628 186.1372 173.9789 15.30586004267888
1 42032U 17008CN  21344.49311026  .00004367  00000-0  15014-3 0  9991
2 42032  97.3033  49.4026 0006708 183.1567 176.9633 15.30592832268015
1 42032U 17008CN  21344.88536847  .00004063  00000-0  13987-3 0  9994
2 42032  97.3033  49.7885 0006754 181.7520 178.3699 15.30595949268071
1 42032U 17008CN  21345.60450674  .00004973  00000-0  17055-3 0  9998
2 42032  97.3034  50.4960 0006820 179.2457 180.8796 15.30604118268187
1 42032U 17008CN  21345.93138651  .00003955  00000-0  13616-3 0  9990
2 42032  97.3034  50.8176 0006861 178.1360 181.9908 15.30604689268232
1 42032U 17008CN  21346.45439312  .00004830  00000-0  16568-3 0  9998
2 42032  97.3035  51.3322 0006911 176.3183 183.8110 15.30611332268319
1 42032U 17008CN  21346.91202181  .00004491  00000-0  15423-3 0  9993
2 42032  97.3035  51.7825 0006957 174.8159 185.3155 15.30615304268383
1 42032U 17008CN  21347.43502483  .00004917  00000-0  16857-3 0  9994
2 42032  97.3036  52.2971 0007007 173.0527 187.0812 15.30621456268462
1 42032U 17008CN  21347.89265066  .00004781  00000-0  16397-3 0  9995
2 42032  97.3037  52.7474 0007055 171.4783 188.6579 15.30626163268530
1 42032U 17008CN  21348.15415064  .00004905  00000-0  16813-3 0  9991
2 42032  97.3036  53.0047 0007072 170.5771 189.5604 15.30629032268576
1 42032U 17008CN  21348.48102490  .00005720  00000-0  19559-3 0  9999
2 42032  97.3037  53.3264 0007108 169.4180 190.7212 15.30633758268627
1 42032U 17008CN  21348.87327272  .00005355  00000-0  18326-3 0  9994
2 42032  97.3037  53.7123 0007155 168.0784 192.0628 15.30637507268680
1 42032U 17008CN  21349.46164234  .00005975  00000-0  20412-3 0  9994
2 42032  97.3037  54.2913 0007206 166.1972 193.9467 15.30645196268772
1 42032U 17008CN  21349.91925994  .00008238  00000-0  28029-3 0  9999
2 42032  97.3036  54.7416 0007243 164.7266 195.4195 15.30656048268846
1 42032U 17008CN  21350.44224898  .00007854  00000-0  26730-3 0  9994
2 42032  97.3035  55.2562 0007279 163.0304 197.1182 15.30663360268926
1 42032U 17008CN  21350.89986158  .00008340  00000-0  28361-3 0  9990
2 42032  97.3035  55.7065 0007321 161.4560 198.6949 15.30672217268998
1 42032U 17008CN  21351.81507866  .00009359  00000-0  31772-3 0  9999
2 42032  97.3034  56.6070 0007382 158.3921 201.7633 15.30691151269137
1 42032U 17008CN  21351.94582319  .00009452  00000-0  32081-3 0  9997
2 42032  97.3033  56.7356 0007397 157.9733 202.1827 15.30693509269157
1 42032U 17008CN  21352.14193964  .00009490  00000-0  32206-3 0  9995
2 42032  97.3032  56.9286 0007418 157.3222 202.8348 15.30697227269180
1 42032U 17008CN  21352.92639934  .00011391  00000-0  38573-3 0  9999
2 42032  97.3029  57.7004 0007481 154.8011 205.3596 15.30715700269305
1 42032U 17008CN  21353.18788372  .00012051  00000-0  40784-3 0  9990
2 42032  97.3029  57.9577 0007506 153.9417 206.2204 15.30722503269349
1 42032U 17008CN  21353.44936721  .00011624  00000-0  39343-3 0  9996
2 42032  97.3028  58.2150 0007522 153.0666 207.0966 15.30727452269380
1 42032U 17008CN  21353.71084972  .00011317  00000-0  38305-3 0  9994
2 42032  97.3027  58.4722 0007543 152.2257 207.9388 15.30733512269422
1 42032U 17008CN  21354.42991697  .00020908  00000-0  70396-3 0  9996
2 42032  97.3024  59.1797 0007593 149.9370 210.2308 15.30766222269538
1 42032U 17008CN  21354.75676224  .00018115  00000-0  61030-3 0  9990
2 42032  97.3022  59.5013 0007604 148.9606 211.2086 15.30774352269587
1 42032U 17008CN  21355.14897249  .00018095  00000-0  60936-3 0  9997
2 42032  97.3021  59.8871 0007628 147.7457 212.4252 15.30789393269644
1 42032U 17008CN  21355.73728148  .00015546  00000-0  52375-3 0  9999
2 42032  97.3019  60.4659 0007660 145.9024 214.2711 15.30807444269737
1 42032U 17008CN  21356.45631440  .00016708  00000-0  56216-3 0  9996
2 42032  97.3016  61.1733 0007693 143.5547 216.6219 15.30834386269841
1 42032U 17008CN  21357.17533510  .00016686  00000-0  56095-3 0  9995
2 42032  97.3014  61.8806 0007748 141.2582 218.9216 15.30861113269954
1 42032U 17008CN  21357.43679414  .00017806  00000-0  59816-3 0  9997
2 42032  97.3013  62.1378 0007747 140.3190 219.8620 15.30871267269999
1 42032U 17008CN  21358.15579823  .00016035  00000-0  53861-3 0  9997
2 42032  97.3012  62.8452 0007795 138.0319 222.1521 15.30896133270109
1 42032U 17008CN  21358.74406668  .00016495  00000-0  55365-3 0  9999
2 42032  97.3011  63.4240 0007822 136.2101 223.9762 15.30915070270197
1 42032U 17008CN  21359.46305100  .00016656  00000-0  55860-3 0  9997
2 42032  97.3011  64.1317 0007804 134.1638 226.0246 15.30938468270302
1 42032U 17008CN  21359.85521978  .00017206  00000-0  57669-3 0  9994
2 42032  97.3011  64.5175 0007809 132.8886 227.3012 15.30952063270361
1 42032U 17008CN  21360.11666341  .00016689  00000-0  55929-3 0  9990
2 42032  97.3013  64.7750 0007881 132.1674 228.0238 15.30960883270404
1 42032U 17008CN  21360.70490688  .00014218  00000-0  47677-3 0  9991
2 42032  97.3013  65.3539 0007900 130.2299 229.9634 15.30977508270491
1 42032U 17008CN  21361.16242457  .00013390  00000-0  44900-3 0  9997
2 42032  97.3013  65.8042 0007925 128.7696 231.4254 15.30991356270566
1 42032U 17008CN  21361.48922063  .00015055  00000-0  50424-3 0  9998
2 42032  97.3014  66.1258 0007936 127.8280 232.3680 15.31002152270618
1 42032U 17008CN  21361.75065625  .00015150  00000-0  50729-3 0  9994
2 42032  97.3014  66.3831 0007945 127.0352 233.1617 15.31009840270653
1 42032U 17008CN  21362.14280626  .00018488  00000-0  61792-3 0  9997
2 42032  97.3015  66.7691 0007973 125.8991 234.2991 15.31026238270712
1 42032U 17008CN  21362.73102513  .00017525  00000-0  58559-3 0  9998
2 42032  97.3016  67.3481 0007994 124.0463 236.1538 15.31044611270808
1 42032U 17008CN  21363.12316649  .00016965  00000-0  56676-3 0  9994
2 42032  97.3017  67.7340 0008021 122.8413 237.3601 15.31057928270865
1 42032U 17008CN  21363.71137325  .00014531  00000-0  48573-3 0  9995
2 42032  97.3017  68.3131 0008045 121.0367 239.1666 15.31073934270951
1 42032U 17008CN  21364.16886262  .00014385  00000-0  48066-3 0  9990
2 42032  97.3018  68.7634 0008055 119.7355 240.4689 15.31087543271026
1 42032U 17008CN  21364.75705862  .00012665  00000-0  42340-3 0  9999
2 42032  97.3017  69.3424 0008078 118.0670 242.1389 15.31100809271113
1 42032U 17008CN  21365.41060325  .00009875  00000-0  33068-3 0  9997
2 42032  97.3016  69.9858 0008082 116.0661 244.1413 15.31113495271218
